STARLINK-32784
1 62607U 25008W   26092.83335647  .00049500  00000+0  13926-2 0  9994
2 62607  42.9961 139.1595 0008593  80.3162 312.2533 15.35700328  5853
STARLINK-36851
1 67943U 26037M   26092.83335647 -.01743374  00000+0 -54413-1 0  9993
2 67943  42.9997  54.4206 0001366 242.5078  81.2667 15.35691939  5901
